{"type": "FeatureCollection", "features": [{"id": "1", "type": "Feature", "properties": {"LST": 50.865441575000006, "NDVI": 0.07813373953104019, "NDBI": 0.3840544521808624, "LST_norm": 0.8898194742583652, "NDVI_norm": 0.2769094039969882, "NDBI_norm": 0.993598928673833, "hotspot_score": 0.8709346471063995, "row": 1104.0, "col": 92.0, "latitude": 28.58192197365185, "longitude": 76.86726681036025, "site_id": 1, "priority_rank": 1}, "geometry": {"type": "Point", "coordinates": [76.86726681036025, 28.58192197365185]}}, {"id": "2", "type": "Feature", "properties": {"LST": 52.43602176500002, "NDVI": 0.011438317596912384, "NDBI": 0.16015584766864777, "LST_norm": 0.9544990674596184, "NDVI_norm": 0.21550117798978363, "NDBI_norm": 0.7467320858493609, "hotspot_score": 0.8411688993417206, "row": 1203.0, "col": 897.0, "latitude": 28.5552420097135, "longitude": 77.08420995147512, "site_id": 2, "priority_rank": 2}, "geometry": {"type": "Point", "coordinates": [77.08420995147512, 28.5552420097135]}}, {"id": "3", "type": "Feature", "properties": {"LST": 52.24204913000003, "NDVI": 0.004292396828532219, "NDBI": 0.15280267596244812, "LST_norm": 0.9465108913678426, "NDVI_norm": 0.2089217411281701, "NDBI_norm": 0.7386246021613297, "hotspot_score": 0.8375152148570849, "row": 1176.0, "col": 1030.0, "latitude": 28.56251836351487, "longitude": 77.12005273131147, "site_id": 3, "priority_rank": 3}, "geometry": {"type": "Point", "coordinates": [77.12005273131147, 28.56251836351487]}}, {"id": "4", "type": "Feature", "properties": {"LST": 53.229856909999995, "NDVI": 0.10316581279039383, "NDBI": 0.1766347438097, "LST_norm": 0.9871907660907184, "NDVI_norm": 0.29995709104299706, "NDBI_norm": 0.7649014401087887, "hotspot_score": 0.8343596111560249, "row": 1077.0, "col": 179.0, "latitude": 28.589198327453218, "longitude": 76.89071283927576, "site_id": 4, "priority_rank": 4}, "geometry": {"type": "Point", "coordinates": [76.89071283927576, 28.589198327453218]}}, {"id": "5", "type": "Feature", "properties": {"LST": 52.90172699000004, "NDVI": 0.16781875491142273, "NDBI": 0.23857803642749786, "LST_norm": 0.9736777281204914, "NDVI_norm": 0.35948475226268434, "NDBI_norm": 0.8331990747279181, "hotspot_score": 0.8315853879877666, "row": 1017.0, "col": 184.0, "latitude": 28.605368002567367, "longitude": 76.89206031220195, "site_id": 5, "priority_rank": 5}, "geometry": {"type": "Point", "coordinates": [76.89206031220195, 28.605368002567367]}}, {"id": "6", "type": "Feature", "properties": {"LST": 53.44519217000001, "NDVI": 0.12002657353878021, "NDBI": 0.1586771458387375, "LST_norm": 0.996058697258682, "NDVI_norm": 0.3154812361291909, "NDBI_norm": 0.745101694034173, "hotspot_score": 0.8273096162749675, "row": 1220.0, "col": 124.0, "latitude": 28.55066060176449, "longitude": 76.87589063708779, "site_id": 6, "priority_rank": 6}, "geometry": {"type": "Point", "coordinates": [76.87589063708779, 28.55066060176449]}}, {"id": "7", "type": "Feature", "properties": {"LST": 52.847893174999996, "NDVI": 0.10069900751113892, "NDBI": 0.1624138504266739, "LST_norm": 0.9714607453284987, "NDVI_norm": 0.2976858386584801, "NDBI_norm": 0.7492217217860264, "hotspot_score": 0.8240450630696634, "row": 1044.0, "col": 122.0, "latitude": 28.598091648766, "longitude": 76.87535164791733, "site_id": 7, "priority_rank": 7}, "geometry": {"type": "Point", "coordinates": [76.87535164791733, 28.598091648766]}}, {"id": "8", "type": "Feature", "properties": {"LST": 52.79235034999999, "NDVI": 0.08700496703386307, "NDBI": 0.14644962549209595, "LST_norm": 0.9691733821304129, "NDVI_norm": 0.28507737606548667, "NDBI_norm": 0.7316198353592445, "hotspot_score": 0.8216320906402925, "row": 1033.0, "col": 239.0, "latitude": 28.601056089203595, "longitude": 76.90688251438992, "site_id": 8, "priority_rank": 8}, "geometry": {"type": "Point", "coordinates": [76.90688251438992, 28.601056089203595]}}, {"id": "9", "type": "Feature", "properties": {"LST": 52.072857140000025, "NDVI": 0.0873185247182846, "NDBI": 0.17362459003925323, "LST_norm": 0.9395432311644433, "NDVI_norm": 0.285366076857728, "NDBI_norm": 0.7615824950919348, "hotspot_score": 0.8186822179360393, "row": 956.0, "col": 379.0, "latitude": 28.621807172266756, "longitude": 76.94461175632294, "site_id": 9, "priority_rank": 9}, "geometry": {"type": "Point", "coordinates": [76.94461175632294, 28.621807172266756]}}, {"id": "10", "type": "Feature", "properties": {"LST": 49.51276016000003, "NDVI": 0.04187066853046417, "NDBI": 0.2629367709159851, "LST_norm": 0.8341133828342188, "NDVI_norm": 0.2435210424701949, "NDBI_norm": 0.8600566064730272, "hotspot_score": 0.8186060223345372, "row": 984.0, "col": 1490.0, "latitude": 28.614261323880154, "longitude": 77.24402024051997, "site_id": 10, "priority_rank": 10}, "geometry": {"type": "Point", "coordinates": [77.24402024051997, 28.614261323880154]}}]}